OBJECT_NAME,OBJECT_ID,EPOCH,MEAN_MOTION,ECCENTRICITY,INCLINATION,RA_OF_ASC_NODE,ARG_OF_PERICENTER,MEAN_ANOMALY,EPHEMERIS_TYPE,CLASSIFICATION_TYPE,NORAD_CAT_ID,ELEMENT_SET_NO,REV_AT_EPOCH,BSTAR,MEAN_MOTION_DOT,MEAN_MOTION_DDOT
NANOSATC-BR1,2014-033Q,2026-07-15T00:45:29.022624,15.32325644,.0005302,98.0712,230.9033,95.9115,264.2729,0,U,40024,999,65824,.33335E-3,.10322E-3,0
QB50P1,2014-033R,2026-07-15T00:35:22.225056,15.18664864,.0010342,98.0961,209.1307,125.0782,235.1421,0,U,40025,999,65725,.20589E-3,.4194E-4,0
DTUSAT-2,2014-033W,2026-07-14T23:23:20.510016,15.15350472,.0009313,98.0873,195.4742,132.4073,227.7947,0,U,40030,999,65689,.18144E-3,.3349E-4,0
QB50P2,2014-033Y,2026-07-14T23:11:12.418944,15.15504423,.0009327,98.0760,194.5840,84.2323,275.9971,0,U,40032,999,65687,.19636E-3,.3647E-4,0
PERSEUS-M1,2014-033AF,2026-07-14T19:11:56.393664,14.95714925,.00108849,97.9653,140.3879,197.5999,162.4845,0,U,40039,999,65476,.11563975E-3,.1228E-4,0
POLYITAN-1,2014-033AJ,2026-07-15T00:58:39.810720,15.34216227,.000794,98.0932,224.9562,64.6154,295.5908,0,U,40042,999,65786,.34568E-3,.11373E-3,0
TIGRISAT,2014-033AK,2026-07-14T22:34:04.263168,14.85249164,.0048652,97.7863,345.3223,345.1915,14.7872,0,U,40043,999,64974,.92158E-4,.751E-5,0
AISAT,2014-034B,2026-07-14T17:55:43.213152,15.09325881,.00108559,98.2372,110.1710,122.8853,237.3420,0,U,40054,999,65136,.32166117E-3,.5065E-4,0
CANX-4,2014-034C,2026-07-15T02:48:59.288832,14.81311066,.0011425,98.3083,72.4512,283.1173,76.8763,0,U,40055,999,64866,.61209E-4,.42E-5,0
CANX-5,2014-034D,2026-07-15T02:46:15.731040,14.81328420,.001142,98.3086,72.4945,283.3463,76.6474,0,U,40056,999,63947,.61423E-4,.422E-5,0
VELOX-I,2014-034E,2026-07-15T04:18:36.936288,14.98126164,.0006893,98.2532,102.7737,163.4382,196.7066,0,U,40057,999,65079,.21772E-3,.2514E-4,0
GONETS-M 10,2014-036C,2026-07-15T05:50:05.030592,12.42946429,.0022948,82.5128,290.2492,82.3485,278.0200,0,U,40063,999,54573,.60732E-3,.94E-6,0
METEOR-M 2,2014-037A,2026-07-15T05:32:50.762976,14.21469180,.0005189,98.5125,170.9788,327.2318,32.8538,0,U,40069,999,62330,.37261E-5,-.34E-6,0
DX1,2014-037C,2026-07-15T03:54:47.736000,14.90059781,.0006995,98.3875,159.5663,170.6054,189.5294,0,U,40071,999,65027,.40671E-4,.33E-5,0
UKUBE-1,2014-037F,2026-07-14T23:55:40.007712,15.13948269,.0003288,98.4241,202.2001,88.3467,271.8138,0,U,40074,999,65276,.22759E-3,.4047E-4,0
GAOFEN-2,2014-049A,2026-07-15T05:11:58.725024,14.80929177,.0008269,98.0103,260.3953,134.5385,225.6503,0,U,40118,999,64338,.9667E-4,.694E-5,0
BRITE-PL2 (HEWELIUSZ),2014-049B,2026-07-14T21:19:12.933696,14.94686767,.0014364,97.9120,308.1065,23.2614,336.9253,0,U,40119,999,64558,.54623E-4,.534E-5,0
CBERS 4,2014-079A,2026-07-15T04:43:17.002848,14.35515940,.0000794,98.3522,252.1474,52.0874,308.0384,0,U,40336,999,60797,.18873E-4,.12E-6,0
SMAP,2015-003A,2026-07-15T04:22:34.385088,14.63389173,.0001599,98.1284,202.8812,95.1759,264.9625,0,U,40376,999,61171,.46002E-4,.191E-5,0
GONETS-M 11,2015-020A,2026-07-15T04:22:48.305856,12.42878233,.0015391,82.4859,13.5434,303.3206,56.6400,0,U,40552,999,51221,-.70632E-3,-.88E-6,0
GONETS-M 12,2015-020B,2026-07-15T03:44:11.945184,12.42892298,.0014258,82.4891,14.6912,287.2744,72.6776,0,U,40553,999,51220,.28445E-3,.49E-6,0
GONETS-M 13,2015-020C,2026-07-15T05:02:36.089088,12.42871793,.0012797,82.4855,13.2641,271.0109,88.9504,0,U,40554,999,51218,-.22915E-3,-.22E-6,0
DMC3-FM1,2015-032A,2026-07-15T03:42:29.996640,14.85765876,.000498,97.6429,60.2283,337.7272,22.3727,0,U,40715,999,59406,-.1111E-4,-.148E-5,0
DMC3-FM2,2015-032B,2026-07-15T04:14:05.390592,14.85773564,.0005522,97.6481,61.8421,341.9808,18.1211,0,U,40716,999,59406,.62865E-4,.495E-5,0
DMC3-FM3,2015-032C,2026-07-15T04:47:58.151904,14.85765766,.0004757,97.6534,63.6358,345.4747,14.6332,0,U,40717,999,59407,.12503E-3,.1035E-4,0
CARBONITE 1 (CBNT-1),2015-032D,2026-07-15T04:07:13.710144,14.83665992,.001386,97.6511,13.0688,197.2371,162.8375,0,U,40718,999,59349,.76569E-4,.582E-5,0
DEORBITSAIL,2015-032E,2026-07-15T03:59:06.129888,15.04221722,.0013688,97.5850,52.4674,135.6330,224.5996,0,U,40719,999,59545,.27682E-3,.3794E-4,0
LILACSAT-2,2015-049K,2026-07-15T04:35:58.250688,15.52359683,.0008423,97.4623,234.1104,141.4645,218.7210,0,U,40908,999,60009,.19341E-3,.11703E-3,0
COSMOS 2507 (RODNIK-S 13),2015-050A,2026-07-15T03:55:51.330720,12.42927439,.000903,82.4910,62.2498,293.3536,66.6593,0,U,40920,999,49033,.29608E-3,.51E-6,0
COSMOS 2508 (RODNIK-S 14),2015-050B,2026-07-15T02:51:27.794016,12.42915480,.0013949,82.4862,60.7720,327.0649,32.9560,0,U,40921,999,49031,.10017E-2,.149E-5,0
