1 40024U 14033Q   26196.03158591  .00010322  00000-0  33335-3 0  9995
2 40024  98.0712 230.9033 0005302  95.9115 264.2729 15.32325644658241
1 40025U 14033R   26196.02456279  .00004194  00000-0  20589-3 0  9996
2 40025  98.0961 209.1307 0010342 125.0782 235.1421 15.18664864657255
1 40030U 14033W   26195.97454294  .00003349  00000-0  18144-3 0  9995
2 40030  98.0873 195.4742 0009313 132.4073 227.7947 15.15350472656897
1 40032U 14033Y   26195.96611596  .00003647  00000-0  19636-3 0  9994
2 40032  98.0760 194.5840 0009327  84.2323 275.9971 15.15504423656877
1 40039U 14033AF  26195.79995826  .00001228  00000-0  11564-3 0  9998
2 40039  97.9653 140.3879 0010885 197.5999 162.4845 14.95714925654765
1 40042U 14033AJ  26196.04073855  .00011373  00000-0  34568-3 0  9991
2 40042  98.0932 224.9562 0007940  64.6154 295.5908 15.34216227657862
1 40043U 14033AK  26195.94032712  .00000751  00000-0  92158-4 0  9995
2 40043  97.7863 345.3223 0048652 345.1915  14.7872 14.85249164649741
1 40054U 14034B   26195.74702793  .00005065  00000-0  32166-3 0  9994
2 40054  98.2372 110.1710 0010856 122.8853 237.3420 15.09325881651360
1 40055U 14034C   26196.11735288  .00000420  00000-0  61209-4 0  9993
2 40055  98.3083  72.4512 0011425 283.1173  76.8763 14.81311066648664
1 40056U 14034D   26196.11545985  .00000422  00000-0  61423-4 0  9997
2 40056  98.3086  72.4945 0011420 283.3463  76.6474 14.81328420639475
1 40057U 14034E   26196.17959417  .00002514  00000-0  21772-3 0  9999
2 40057  98.2532 102.7737 0006893 163.4382 196.7066 14.98126164650791
1 40063U 14036C   26196.24311378  .00000094  00000-0  60732-3 0  9994
2 40063  82.5128 290.2492 0022948  82.3485 278.0200 12.42946429545730
1 40069U 14037A   26196.23114309 -.00000034  00000-0  37261-5 0  9993
2 40069  98.5125 170.9788 0005189 327.2318  32.8538 14.21469180623309
1 40071U 14037C   26196.16305250  .00000330  00000-0  40671-4 0  9991
2 40071  98.3875 159.5663 0006995 170.6054 189.5294 14.90059781650273
1 40074U 14037F   26195.99699083  .00004047  00000-0  22759-3 0  9999
2 40074  98.4241 202.2001 0003288  88.3467 271.8138 15.13948269652763
1 40118U 14049A   26196.21665191  .00000694  00000-0  96670-4 0  9998
2 40118  98.0103 260.3953 0008269 134.5385 225.6503 14.80929177643384
1 40119U 14049B   26195.88834414  .00000534  00000-0  54623-4 0  9992
2 40119  97.9120 308.1065 0014364  23.2614 336.9253 14.94686767645581
1 40336U 14079A   26196.19672457  .00000012  00000-0  18873-4 0  9996
2 40336  98.3522 252.1474 0000794  52.0874 308.0384 14.35515940607970
1 40376U 15003A   26196.18234242  .00000191  00000-0  46002-4 0  9996
2 40376  98.1284 202.8812 0001599  95.1759 264.9625 14.63389173611712
1 40552U 15020A   26196.18250354 -.00000088  00000-0 -70632-3 0  9995
2 40552  82.4859  13.5434 0015391 303.3206  56.6400 12.42878233512212
1 40553U 15020B   26196.15569381  .00000049  00000-0  28445-3 0  9996
2 40553  82.4891  14.6912 0014258 287.2744  72.6776 12.42892298512200
1 40554U 15020C   26196.21013992 -.00000022  00000-0 -22915-3 0  9995
2 40554  82.4855  13.2641 0012797 271.0109  88.9504 12.42871793512180
1 40715U 15032A   26196.15451385 -.00000148  00000-0 -11110-4 0  9997
2 40715  97.6429  60.2283 0004980 337.7272  22.3727 14.85765876594063
1 40716U 15032B   26196.17645128  .00000495  00000-0  62865-4 0  9996
2 40716  97.6481  61.8421 0005522 341.9808  18.1211 14.85773564594062
1 40717U 15032C   26196.19997861  .00001035  00000-0  12503-3 0  9997
2 40717  97.6534  63.6358 0004757 345.4747  14.6332 14.85765766594072
1 40718U 15032D   26196.17168646  .00000582  00000-0  76569-4 0  9996
2 40718  97.6511  13.0688 0013860 197.2371 162.8375 14.83665992593490
1 40719U 15032E   26196.16604317  .00003794  00000-0  27682-3 0  9995
2 40719  97.5850  52.4674 0013688 135.6330 224.5996 15.04221722595453
1 40908U 15049K   26196.19164642  .00011703  00000-0  19341-3 0  9990
2 40908  97.4623 234.1104 0008423 141.4645 218.7210 15.52359683600094
1 40920U 15050A   26196.16378855  .00000051  00000-0  29608-3 0  9997
2 40920  82.4910  62.2498 0009030 293.3536  66.6593 12.42927439490332
1 40921U 15050B   26196.11907169  .00000149  00000-0  10017-2 0  9990
2 40921  82.4862  60.7720 0013949 327.0649  32.9560 12.42915480490315
